[Satellite]
VERSION=1.1
NAME=IRIDIUM 16 [-]
NICKNAME=IRIDIUM 16 [-]
TLE1=1 24841U 97030F   17186.03051242  .00000100  00000-0  27313-4 0  9999
TLE2=2 24841  86.4038 342.5376 0001737 161.1149 199.0113 14.36720808 49883
